ICUBE-1                 
1 39432U 13066S   26068.88599844  .00019249  00000+0  81477-3 0  9998
2 39432  97.5653  53.5484 0015998 327.1969  32.8272 15.23110621669283
AVION KALUGA 650        
1 57195U 23091AF  26068.94192117  .00007129  00000+0  34113-3 0  9991
2 57195  97.5213 128.9411 0012219  96.9112 263.3513 15.19219239148957
