[{"OBJECT_NAME":"AVION KALUGA 650","OBJECT_ID":"2023-091AF","EPOCH":"2026-03-09T22:36:21.989088","MEAN_MOTION":15.19219239,"ECCENTRICITY":0.00122198,"INCLINATION":97.5213,"RA_OF_ASC_NODE":128.9411,"ARG_OF_PERICENTER":96.9112,"MEAN_ANOMALY":263.3513,"EPHEMERIS_TYPE":0,"CLASSIFICATION_TYPE":"U","NORAD_CAT_ID":57195,"ELEMENT_SET_NO":999,"REV_AT_EPOCH":14895,"BSTAR":0.0003411279,"MEAN_MOTION_DOT":7.129e-5,"MEAN_MOTION_DDOT":0},{"OBJECT_NAME":"ICUBE-1","OBJECT_ID":"2013-066S","EPOCH":"2026-03-09T21:15:50.265216","MEAN_MOTION":15.23110621,"ECCENTRICITY":0.00159988,"INCLINATION":97.5653,"RA_OF_ASC_NODE":53.5484,"ARG_OF_PERICENTER":327.1969,"MEAN_ANOMALY":32.8272,"EPHEMERIS_TYPE":0,"CLASSIFICATION_TYPE":"U","NORAD_CAT_ID":39432,"ELEMENT_SET_NO":999,"REV_AT_EPOCH":66928,"BSTAR":0.00081477483,"MEAN_MOTION_DOT":0.00019249,"MEAN_MOTION_DDOT":0}]
